NORAD_CAT_ID,OBJECT_NAME,OBJECT_TYPE,EPOCH,MEAN_MOTION,ECCENTRICITY,INCLINATION,RA_OF_ASC_NODE,ARG_OF_PERICENTER,MEAN_ANOMALY,BSTAR,MEAN_MOTION_DOT,MEAN_MOTION_DDOT,TLE_LINE0,TLE_LINE1,TLE_LINE2,SEMIMAJOR_AXIS,PERIOD,APOGEE,PERIGEE,DECAYED
53932.0,STARLINK-4772,PAYLOAD,2023-05-18 11:54:06,15.0883598,8.39e-05,53.2157,225.9768,86.9569,273.1519,3.0827e-05,2.03e-06,0.0,0 STARLINK-4772,1 53932U 22119AY  23138.49591130  .00000203  00000-0  30827-4 0  9995,2 53932  53.2157 225.9768 0000839  86.9569 273.1519 15.08835980 36698,6917.893,95.438,540.338,539.177,0.0
53932.0,STARLINK-4772,PAYLOAD,2023-05-18 13:29:29,15.08838021,8.72e-05,53.2158,225.6792,86.2021,273.907,4.6509e-05,4.53e-06,0.0,0 STARLINK-4772,1 53932U 22119AY  23138.56214971  .00000453  00000-0  46509-4 0  9999,2 53932  53.2158 225.6792 0000872  86.2021 273.9070 15.08838021 37135,6917.886,95.438,540.355,539.148,0.0
53932.0,STARLINK-4772,PAYLOAD,2023-05-19 11:44:53,15.08840332,8.59e-05,53.2157,221.5159,85.1598,274.9492,-2.6166e-05,-7.04e-06,0.0,0 STARLINK-4772,1 53932U 22119AY  23139.48951251 -.00000704  00000-0 -26166-4 0  9998,2 53932  53.2157 221.5159 0000859  85.1598 274.9492 15.08840332 37270,6917.879,95.438,540.339,539.15,0.0
53932.0,STARLINK-4772,PAYLOAD,2023-05-19 22:52:35,15.08844587,8.58e-05,53.2161,219.4335,84.4304,275.6786,1.1597e-05,-1.03e-06,0.0,0 STARLINK-4772,1 53932U 22119AY  23139.95318774 -.00000103  00000-0  11597-4 0  9991,2 53932  53.2161 219.4335 0000858  84.4304 275.6786 15.08844587 36913,6917.866,95.437,540.325,539.138,0.0
53932.0,STARLINK-4772,PAYLOAD,2023-05-20 10:00:14,15.0891926,0.0001368,53.2159,217.3523,61.1,299.013,-0.0008605,-0.00013986,0.0,0 STARLINK-4772,1 53932U 22119AY  23140.41683930 -.00013986  00000-0 -86050-3 0  9992,2 53932  53.2159 217.3523 0001368  61.1000 299.0130 15.08919260 36989,6917.638,95.433,540.449,538.557,0.0
53932.0,STARLINK-4772,PAYLOAD,2023-05-20 14:46:25,15.08857728,9.98e-05,53.2161,216.4589,79.8611,280.2494,0.00017855,2.556e-05,0.0,0 STARLINK-4772,1 53932U 22119AY  23140.61557408  .00002556  00000-0  17855-3 0  9990,2 53932  53.2161 216.4589 0000998  79.8611 280.2494 15.08857728 37016,6917.826,95.436,540.382,539.001,0.0
53932.0,STARLINK-4772,PAYLOAD,2023-05-20 22:43:21,15.08846242,8.86e-05,53.2176,214.9677,111.9474,248.1612,0.00012746,1.742e-05,0.0,0 STARLINK-4772,1 53932U 22119AY  23140.94677928  .00001742  00000-0  12746-3 0  9996,2 53932  53.2176 214.9677 0000886 111.9474 248.1612 15.08846242 37063,6917.861,95.437,540.339,539.113,0.0
53932.0,STARLINK-4772,PAYLOAD,2023-05-21 11:26:27,15.08843557,0.0001009,53.2164,212.5939,89.5651,270.5457,4.9656e-05,5.03e-06,0.0,0 STARLINK-4772,1 53932U 22119AY  23141.47670504  .00000503  00000-0  49656-4 0  9993,2 53932  53.2164 212.5939 0001009  89.5651 270.5457 15.08843557 37578,6917.87,95.437,540.433,539.037,0.0
53932.0,STARLINK-4772,PAYLOAD,2023-05-21 14:37:13,15.0884506,9.74e-05,53.217,211.9983,95.2599,264.8505,5.7794e-05,6.32e-06,0.0,0 STARLINK-4772,1 53932U 22119AY  23141.60918319  .00000632  00000-0  57794-4 0  9992,2 53932  53.2170 211.9983 0000974  95.2599 264.8505 15.08845060 37168,6917.865,95.437,540.404,539.056,0.0
53932.0,STARLINK-4772,PAYLOAD,2023-05-22 04:55:42,15.08837489,0.0001166,53.2169,209.3204,106.1973,253.9147,-8.3489e-05,-1.616e-05,0.0,0 STARLINK-4772,1 53932U 22119AY  23142.20535266 -.00001616  00000-0 -83489-4 0  9990,2 53932  53.2169 209.3204 0001166 106.1973 253.9147 15.08837489 37252,6917.888,95.438,540.56,538.946,0.0
53932.0,STARLINK-4772,PAYLOAD,2023-05-22 11:17:14,15.08838643,0.0001081,53.2159,208.1323,86.9609,273.1507,-4.4503e-05,-9.96e-06,0.0,0 STARLINK-4772,1 53932U 22119AY  23142.47031134 -.00000996  00000-0 -44503-4 0  9998,2 53932  53.2159 208.1323 0001081  86.9609 273.1507 15.08838643 37726,6917.885,95.438,540.497,539.002,0.0
53932.0,STARLINK-4772,PAYLOAD,2023-05-22 20:49:33,15.08842701,8.44e-05,53.2156,206.3498,89.2249,270.884,-0.00012357,-2.254e-05,0.0,0 STARLINK-4772,1 53932U 22119AY  23142.86775054 -.00002254  00000-0 -12357-3 0  9997,2 53932  53.2156 206.3498 0000844  89.2249 270.8840 15.08842701 37788,6917.872,95.437,540.321,539.153,0.0
53932.0,STARLINK-4772,PAYLOAD,2023-05-23 11:08:02,15.08834317,9.06e-05,53.2162,203.6732,87.3977,272.7119,2.1081e-05,4.8e-07,0.0,0 STARLINK-4772,1 53932U 22119AY  23143.46391479  .00000048  00000-0  21081-4 0  9991,2 53932  53.2162 203.6732 0000906  87.3977 272.7119 15.08834317 37449,6917.898,95.438,540.39,539.136,0.0
53932.0,STARLINK-4772,PAYLOAD,2023-05-23 20:40:20,15.0883759,9.19e-05,53.2159,201.8894,103.5186,256.5909,3.489e-05,2.68e-06,0.0,0 STARLINK-4772,1 53932U 22119AY  23143.86135351  .00000268  00000-0  34890-4 0  9996,2 53932  53.2159 201.8894 0000919 103.5186 256.5909 15.08837590 37938,6917.888,95.438,540.389,539.117,0.0
53932.0,STARLINK-4772,PAYLOAD,2023-05-24 14:09:35,15.0883808,9.47e-05,53.2166,198.6179,93.961,266.149,0.00014087,1.955e-05,0.0,0 STARLINK-4772,1 53932U 22119AY  23144.58999397  .00001955  00000-0  14087-3 0  9993,2 53932  53.2166 198.6179 0000947  93.9610 266.1490 15.08838080 37612,6917.886,95.438,540.406,539.096,0.0
53932.0,STARLINK-4772,PAYLOAD,2023-05-26 02:43:27,15.0884072,9.82e-05,53.2154,191.778,92.1066,268.0038,5.8262e-05,6.4e-06,0.0,0 STARLINK-4772,1 53932U 22119AY  23146.11351696  .00000640  00000-0  58262-4 0  9992,2 53932  53.2154 191.7780 0000982  92.1066 268.0038 15.08840720 37844,6917.878,95.438,540.423,539.064,0.0
53932.0,STARLINK-4772,PAYLOAD,2023-05-26 10:40:23,15.08844004,9.48e-05,53.2156,190.2914,93.3462,266.7639,5.2157e-05,5.43e-06,0.0,0 STARLINK-4772,1 53932U 22119AY  23146.44471444  .00000543  00000-0  52157-4 0  9991,2 53932  53.2156 190.2914 0000948  93.3462 266.7639 15.08844004 38329,6917.868,95.437,540.389,539.077,0.0
53932.0,STARLINK-4772,PAYLOAD,2023-05-27 08:55:47,15.0883604,9.45e-05,53.2157,186.129,86.6144,273.4957,1.2204e-05,-9.4e-07,0.0,0 STARLINK-4772,1 53932U 22119AY  23147.37208111 -.00000094  00000-0  12204-4 0  9994,2 53932  53.2157 186.1290 0000945  86.6144 273.4957 15.08836040 38037,6917.892,95.438,540.411,539.104,0.0
53932.0,STARLINK-4772,PAYLOAD,2023-05-27 20:03:29,15.08839421,9.66e-05,53.2155,184.0474,84.8,275.3102,3.0921e-05,2.04e-06,0.0,0 STARLINK-4772,1 53932U 22119AY  23147.83575888  .00000204  00000-0  30921-4 0  9991,2 53932  53.2155 184.0474 0000966  84.8000 275.3102 15.08839421 38534,6917.882,95.438,540.415,539.079,0.0
53932.0,STARLINK-4772,PAYLOAD,2023-05-27 23:14:15,15.08842129,8.98e-05,53.2154,183.4525,79.9195,280.1899,4.2022e-05,3.81e-06,0.0,0 STARLINK-4772,1 53932U 22119AY  23147.96823663  .00000381  00000-0  42022-4 0  9993,2 53932  53.2154 183.4525 0000898  79.9195 280.1899 15.08842129 38128,6917.874,95.437,540.36,539.118,0.0
53932.0,STARLINK-4772,PAYLOAD,2023-05-28 05:35:48,15.08843329,8.97e-05,53.2154,182.2629,80.1997,279.9096,5.0847e-05,5.22e-06,0.0,0 STARLINK-4772,1 53932U 22119AY  23148.23319544  .00000522  00000-0  50847-4 0  9993,2 53932  53.2154 182.2629 0000897  80.1997 279.9096 15.08843329 38592,6917.87,95.437,540.356,539.115,0.0
53932.0,STARLINK-4772,PAYLOAD,2023-05-28 08:46:34,15.0884477,9.09e-05,53.2153,181.6682,79.8719,280.2375,6.1579e-05,6.93e-06,0.0,0 STARLINK-4772,1 53932U 22119AY  23148.36567389  .00000693  00000-0  61579-4 0  9992,2 53932  53.2153 181.6682 0000909  79.8719 280.2375 15.08844770 38613,6917.866,95.437,540.36,539.102,0.0
53932.0,STARLINK-4772,PAYLOAD,2023-05-29 07:01:58,15.08838129,9.1e-05,53.2152,177.5048,78.676,281.4334,6.482e-05,7.44e-06,0.0,0 STARLINK-4772,1 53932U 22119AY  23149.29303750  .00000744  00000-0  64820-4 0  9994,2 53932  53.2152 177.5048 0000910  78.6760 281.4334 15.08838129 38324,6917.886,95.438,540.381,539.122,0.0
53932.0,STARLINK-4772,PAYLOAD,2023-05-30 08:28:08,15.08837197,9.84e-05,53.2157,172.7479,83.5401,276.5703,-1.4624e-05,-5.2e-06,0.0,0 STARLINK-4772,1 53932U 22119AY  23150.35288150 -.00000520  00000-0 -14624-4 0  9990,2 53932  53.2157 172.7479 0000984  83.5401 276.5703 15.08837197 38488,6917.889,95.438,540.435,539.073,0.0
53932.0,STARLINK-4772,PAYLOAD,2023-05-30 18:00:27,15.08836595,0.0001015,53.2161,170.9645,81.9722,278.1385,-8.0275e-08,-2.89e-06,0.0,0 STARLINK-4772,1 53932U 22119AY  23150.75032222 -.00000289  00000-0 -80275-7 0  9991,2 53932  53.2161 170.9645 0001015  81.9722 278.1385 15.08836595 38971,6917.891,95.438,540.458,539.054,0.0
53932.0,STARLINK-4772,PAYLOAD,2023-05-31 08:18:55,15.08837895,9.81e-05,53.2156,168.2872,79.3418,280.7684,6.2033e-05,7e-06,0.0,0 STARLINK-4772,1 53932U 22119AY  23151.34648016  .00000700  00000-0  62033-4 0  9996,2 53932  53.2156 168.2872 0000981  79.3418 280.7684 15.08837895 39067,6917.887,95.438,540.43,539.073,0.0
53932.0,STARLINK-4772,PAYLOAD,2023-05-31 17:51:14,15.08835857,9.86e-05,53.2155,166.5028,78.0945,282.0158,4.4855e-05,4.26e-06,0.0,0 STARLINK-4772,1 53932U 22119AY  23151.74392282  .00000426  00000-0  44855-4 0  9998,2 53932  53.2155 166.5028 0000986  78.0945 282.0158 15.08835857 38691,6917.893,95.438,540.44,539.076,0.0
53932.0,STARLINK-4772,PAYLOAD,2023-06-01 08:09:43,15.08835598,0.0001024,53.2156,163.8267,78.1749,281.9358,5.0614e-05,5.18e-06,0.0,0 STARLINK-4772,1 53932U 22119AY  23152.34008466  .00000518  00000-0  50614-4 0  9995,2 53932  53.2156 163.8267 0001024  78.1749 281.9358 15.08835598 39215,6917.894,95.438,540.467,539.05,0.0
53932.0,STARLINK-4772,PAYLOAD,2023-06-02 09:35:53,15.08840244,0.0001097,53.2157,159.0684,76.9808,283.1307,4.5488e-05,4.36e-06,0.0,0 STARLINK-4772,1 53932U 22119AY  23153.39992335  .00000436  00000-0  45488-4 0  9990,2 53932  53.2157 159.0684 0001097  76.9808 283.1307 15.08840244 38949,6917.88,95.438,540.504,538.986,0.0
53932.0,STARLINK-4772,PAYLOAD,2023-06-02 17:32:49,15.08840022,0.0001084,53.2157,157.5818,77.6779,282.4335,5.3643e-05,5.66e-06,0.0,0 STARLINK-4772,1 53932U 22119AY  23153.73112358  .00000566  00000-0  53643-4 0  9993,2 53932  53.2157 157.5818 0001084  77.6779 282.4335 15.08840022 39423,6917.88,95.438,540.495,538.995,0.0
